NORAD_CAT_ID,OBJECT_NAME,OBJECT_TYPE,EPOCH,MEAN_MOTION,ECCENTRICITY,INCLINATION,RA_OF_ASC_NODE,ARG_OF_PERICENTER,MEAN_ANOMALY,BSTAR,MEAN_MOTION_DOT,MEAN_MOTION_DDOT,TLE_LINE0,TLE_LINE1,TLE_LINE2,SEMIMAJOR_AXIS,PERIOD,APOGEE,PERIGEE,DECAYED
49444.0,STARLINK-3126,PAYLOAD,2024-01-24 09:47:14,15.08835795,0.0001645,53.2179,89.5084,98.2589,261.859,5.5598e-05,5.97e-06,0.0,0 STARLINK-3126,1 49444U 21104AN  24024.40781104  .00000597  00000-0  55598-4 0  9997,2 49444  53.2179  89.5084 0001645  98.2589 261.8590 15.08835795122945,6917.893,95.438,540.896,538.62,0.0
49444.0,STARLINK-3126,PAYLOAD,2024-01-25 11:13:24,15.08854038,0.0001496,53.2165,84.7478,86.5763,273.5401,9.8875e-05,1.287e-05,0.0,0 STARLINK-3126,1 49444U 21104AN  24025.46764165  .00001287  00000-0  98875-4 0  9994,2 49444  53.2165  84.7478 0001496  86.5763 273.5401 15.08854038123103,6917.837,95.437,540.737,538.668,0.0
49444.0,STARLINK-3126,PAYLOAD,2024-01-26 11:04:12,15.08841535,0.0001621,53.2174,80.2881,81.6263,278.4913,0.00013294,1.828e-05,0.0,0 STARLINK-3126,1 49444U 21104AN  24026.46125104  .00001828  00000-0  13294-3 0  9991,2 49444  53.2174  80.2881 0001621  81.6263 278.4913 15.08841535123259,6917.876,95.437,540.862,538.619,0.0
49444.0,STARLINK-3126,PAYLOAD,2024-01-27 10:54:59,15.08835159,0.0001999,53.2181,75.8288,58.8098,301.309,6.1706e-05,6.94e-06,0.0,0 STARLINK-3126,1 49444U 21104AN  24027.45486054  .00000694  00000-0  61706-4 0  9997,2 49444  53.2181  75.8288 0001999  58.8098 301.3090 15.08835159123402,6917.895,95.438,541.143,538.377,0.0
49444.0,STARLINK-3126,PAYLOAD,2024-01-28 09:10:23,15.08847648,0.000196,53.2179,71.6657,62.9607,297.1585,7.7601e-05,9.47e-06,0.0,0 STARLINK-3126,1 49444U 21104AN  24028.38221227  .00000947  00000-0  77601-4 0  9991,2 49444  53.2179  71.6657 0001960  62.9607 297.1585 15.08847648123545,6917.857,95.437,541.078,538.366,0.0
49444.0,STARLINK-3126,PAYLOAD,2024-01-28 12:21:08,15.08850873,0.0001861,53.2185,71.0677,72.374,287.7455,0.00015718,2.215e-05,0.0,0 STARLINK-3126,1 49444U 21104AN  24028.51468657  .00002215  00000-0  15718-3 0  9996,2 49444  53.2185  71.0677 0001861  72.3740 287.7455 15.08850873122499,6917.847,95.437,541.0,538.425,0.0
49444.0,STARLINK-3126,PAYLOAD,2024-01-29 09:01:11,15.08832973,0.0001278,53.2165,67.2059,81.2962,278.8175,-7.7213e-06,-4.11e-06,0.0,0 STARLINK-3126,1 49444U 21104AN  24029.37582356 -.00000411  00000-0 -77213-5 0  9992,2 49444  53.2165  67.2059 0001278  81.2962 278.8175 15.08832973123699,6917.902,95.438,540.651,538.883,0.0
49444.0,STARLINK-3126,PAYLOAD,2024-01-29 12:11:57,15.08831652,0.0001209,53.2162,66.6123,83.2984,276.8146,-2.1776e-05,-6.34e-06,0.0,0 STARLINK-3126,1 49444U 21104AN  24029.50830499 -.00000634  00000-0 -21776-4 0  9990,2 49444  53.2162  66.6123 0001209  83.2984 276.8146 15.08831652122644,6917.906,95.438,540.607,538.935,0.0
49444.0,STARLINK-3126,PAYLOAD,2024-01-30 12:02:43,15.08845747,0.0001914,53.218,62.1452,109.9272,250.1927,6.4291e-05,7.35e-06,0.0,0 STARLINK-3126,1 49444U 21104AN  24030.50189476  .00000735  00000-0  64291-4 0  9993,2 49444  53.2180  62.1452 0001914 109.9272 250.1927 15.08845747123866,6917.863,95.437,541.052,538.404,0.0
49444.0,STARLINK-3126,PAYLOAD,2024-01-31 11:53:30,15.08837534,0.0001766,53.2175,57.6857,107.9411,252.1774,0.00023645,3.477e-05,0.0,0 STARLINK-3126,1 49444U 21104AN  24031.49549599  .00003477  00000-0  23645-3 0  9991,2 49444  53.2175  57.6857 0001766 107.9411 252.1774 15.08837534124011,6917.888,95.438,540.975,538.531,0.0
49444.0,STARLINK-3126,PAYLOAD,2024-02-01 10:08:55,15.08840349,0.0001898,53.2182,53.5198,116.1243,243.9945,2.3309e-05,8.3e-07,0.0,0 STARLINK-3126,1 49444U 21104AN  24032.42286006  .00000083  00000-0  23309-4 0  9994,2 49444  53.2182  53.5198 0001898 116.1243 243.9945 15.08840349123085,6917.879,95.438,541.057,538.431,0.0
49444.0,STARLINK-3126,PAYLOAD,2024-02-02 09:59:42,15.08813371,0.0001832,53.2181,49.0588,96.3851,263.735,0.00051923,7.979e-05,0.0,0 STARLINK-3126,1 49444U 21104AN  24033.41646515  .00007979  00000-0  51923-3 0  9992,2 49444  53.2181  49.0588 0001832  96.3851 263.7350 15.08813371124300,6917.962,95.439,541.094,538.559,0.0
49444.0,STARLINK-3126,PAYLOAD,2024-02-03 00:18:10,15.08836712,0.0001576,53.2181,46.3891,88.8941,271.2231,9.6634e-05,1.25e-05,0.0,0 STARLINK-3126,1 49444U 21104AN  24034.01262167  .00001250  00000-0  96634-4 0  9991,2 49444  53.2181  46.3891 0001576  88.8941 271.2231 15.08836712124393,6917.89,95.438,540.846,538.665,0.0
49444.0,STARLINK-3126,PAYLOAD,2024-02-03 08:15:06,15.08816958,0.0001801,53.2186,44.9019,84.601,275.5187,0.0004577,6.999e-05,0.0,0 STARLINK-3126,1 49444U 21104AN  24034.34382626  .00006999  00000-0  45770-3 0  9999,2 49444  53.2186  44.9019 0001801  84.6010 275.5187 15.08816958123370,6917.951,95.439,541.062,538.57,0.0
49444.0,STARLINK-3126,PAYLOAD,2024-02-04 00:08:57,15.08846546,0.0001621,53.2174,41.9279,88.7012,271.4166,2.3893e-05,9.2e-07,0.0,0 STARLINK-3126,1 49444U 21104AN  24035.00621912  .00000092  00000-0  23893-4 0  9998,2 49444  53.2174  41.9279 0001621  88.7012 271.4166 15.08846546124547,6917.86,95.437,540.847,538.604,0.0
49444.0,STARLINK-3126,PAYLOAD,2024-02-04 09:41:15,15.08852555,0.0001589,53.2174,40.1431,85.5388,274.5785,0.00010781,1.429e-05,0.0,0 STARLINK-3126,1 49444U 21104AN  24035.40365211  .00001429  00000-0  10781-3 0  9995,2 49444  53.2174  40.1431 0001589  85.5388 274.5785 15.08852555123538,6917.842,95.437,540.806,538.608,0.0
49444.0,STARLINK-3126,PAYLOAD,2024-02-04 23:59:44,15.08843041,0.0001616,53.2179,37.4621,130.4423,229.671,-2.7943e-05,-7.33e-06,0.0,0 STARLINK-3126,1 49444U 21104AN  24035.99981873 -.00000733  00000-0 -27943-4 0  9995,2 49444  53.2179  37.4621 0001616 130.4423 229.6710 15.08843041124691,6917.871,95.437,540.854,538.618,0.0
49444.0,STARLINK-3126,PAYLOAD,2024-02-05 06:21:16,15.08844444,0.0001438,53.2166,36.277,99.4196,260.6959,6.457e-05,7.4e-06,0.0,0 STARLINK-3126,1 49444U 21104AN  24036.26477610  .00000740  00000-0  64570-4 0  9998,2 49444  53.2166  36.2770 0001438  99.4196 260.6959 15.08844444123666,6917.867,95.437,540.727,538.737,0.0
49444.0,STARLINK-3126,PAYLOAD,2024-02-06 04:36:40,15.08840663,0.000137,53.216,32.1138,97.7187,262.3961,1.6894e-05,-1.9e-07,0.0,0 STARLINK-3126,1 49444U 21104AN  24037.19213939 -.00000019  00000-0  16894-4 0  9999,2 49444  53.2160  32.1138 0001370  97.7187 262.3961 15.08840663124874,6917.878,95.438,540.691,538.796,0.0
49444.0,STARLINK-3126,PAYLOAD,2024-02-06 06:12:03,15.08857959,0.0001666,53.2167,31.817,105.5544,254.5632,-0.00014787,-2.642e-05,0.0,0 STARLINK-3126,1 49444U 21104AN  24037.25837222 -.00002642  00000-0 -14787-3 0  9996,2 49444  53.2167  31.8170 0001666 105.5544 254.5632 15.08857959124881,6917.825,95.436,540.843,538.538,0.0
49444.0,STARLINK-3126,PAYLOAD,2024-02-07 04:27:27,15.08842388,0.0001741,53.2189,27.653,109.2533,250.8648,3.4272e-05,2.57e-06,0.0,0 STARLINK-3126,1 49444U 21104AN  24038.18573886  .00000257  00000-0  34272-4 0  9992,2 49444  53.2189  27.6530 0001741 109.2533 250.8648 15.08842388125024,6917.873,95.437,540.942,538.534,0.0
49444.0,STARLINK-3126,PAYLOAD,2024-02-07 06:02:50,15.08844464,0.0001651,53.2194,27.3569,105.4061,254.7113,6.6591e-05,7.72e-06,0.0,0 STARLINK-3126,1 49444U 21104AN  24038.25197717  .00000772  00000-0  66591-4 0  9996,2 49444  53.2194  27.3569 0001651 105.4061 254.7113 15.08844464123961,6917.867,95.437,540.874,538.59,0.0
49444.0,STARLINK-3126,PAYLOAD,2024-02-07 15:35:09,15.08846253,0.0001611,53.219,25.5716,87.7557,272.362,3.2434e-05,2.28e-06,0.0,0 STARLINK-3126,1 49444U 21104AN  24038.64941648  .00000228  00000-0  32434-4 0  9994,2 49444  53.2190  25.5716 0001611  87.7557 272.3620 15.08846253124024,6917.861,95.437,540.841,538.612,0.0
49444.0,STARLINK-3126,PAYLOAD,2024-02-08 04:18:15,15.08834845,0.0001769,53.2193,23.2013,108.4537,251.6648,3.4946e-05,2.68e-06,0.0,0 STARLINK-3126,1 49444U 21104AN  24039.17934722  .00000268  00000-0  34946-4 0  9992,2 49444  53.2193  23.2013 0001769 108.4537 251.6648 15.08834845125176,6917.896,95.438,540.985,538.537,0.0
49444.0,STARLINK-3126,PAYLOAD,2024-02-08 05:53:38,15.08835232,0.0001797,53.2195,22.9031,108.3436,251.7751,3.5327e-05,2.74e-06,0.0,0 STARLINK-3126,1 49444U 21104AN  24039.24558762  .00000274  00000-0  35327-4 0  9997,2 49444  53.2195  22.9031 0001797 108.3436 251.7751 15.08835232124112,6917.895,95.438,541.003,538.517,0.0
49444.0,STARLINK-3126,PAYLOAD,2024-02-09 04:09:02,15.08844027,0.0001737,53.2188,18.7382,122.9528,237.1631,-5.9023e-06,-3.82e-06,0.0,0 STARLINK-3126,1 49444U 21104AN  24040.17294495 -.00000382  00000-0 -59023-5 0  9993,2 49444  53.2188  18.7382 0001737 122.9528 237.1631 15.08844027124256,6917.868,95.437,540.935,538.531,0.0
49444.0,STARLINK-3126,PAYLOAD,2024-02-10 03:59:49,15.08838334,0.0001514,53.2183,14.2758,98.9315,261.1849,0.00011026,1.467e-05,0.0,0 STARLINK-3126,1 49444U 21104AN  24041.16654930  .00001467  00000-0  11026-3 0  9999,2 49444  53.2183  14.2758 0001514  98.9315 261.1849 15.08838334125475,6917.885,95.438,540.798,538.703,0.0
49444.0,STARLINK-3126,PAYLOAD,2024-02-10 07:10:35,15.08843168,0.0001389,53.2174,13.6783,84.5858,275.5293,0.00014206,1.974e-05,0.0,0 STARLINK-3126,1 49444U 21104AN  24041.29902652  .00001974  00000-0  14206-3 0  9996,2 49444  53.2174  13.6783 0001389  84.5858 275.5293 15.08843168124426,6917.871,95.437,540.697,538.775,0.0
49444.0,STARLINK-3126,PAYLOAD,2024-02-11 07:01:22,15.08854594,0.0001466,53.2183,9.2143,102.4295,257.6862,0.00021175,3.085e-05,0.0,0 STARLINK-3126,1 49444U 21104AN  24042.29261731  .00003085  00000-0  21175-3 0  9991,2 49444  53.2183   9.2143 0001466 102.4295 257.6862 15.08854594125641,6917.836,95.437,540.715,538.687,0.0
49444.0,STARLINK-3126,PAYLOAD,2024-02-12 03:41:23,15.08844001,0.0001815,53.2194,5.3433,94.2618,265.8581,8.5636e-05,1.075e-05,0.0,0 STARLINK-3126,1 49444U 21104AN  24043.15374605  .00001075  00000-0  85636-4 0  9992,2 49444  53.2194   5.3433 0001815  94.2618 265.8581 15.08844001125772,6917.868,95.437,540.989,538.478,0.0
